STARLINK-36211          
1 67218U 25304AC  26005.16670139 -.00055292  00000+0 -90194-3 0  9994
2 67218  70.0001 341.4197 0002917 271.9873 309.1418 15.52530769  4204
DISKSAT A               
1 67219U 25305A   25354.38090451  .00000510  00000+0  50887-4 0  9996
2 67219  45.0057 310.0654 0003912 276.1097  83.9332 15.05762698   337
DISKSAT B               
1 67220U 25305B   25354.24828476  .00000511  00000+0  51086-4 0  9992
2 67220  45.0108 310.7693 0004681 270.4757  89.5581 15.05702195   312
DISKSAT C               
1 67221U 25305C   25354.31471422  .00001256  00000+0  10191-3 0  9994
2 67221  45.0067 310.4143 0004387 282.7791  77.2594 15.05653670   312
DISKSAT D               
1 67222U 25305D   25354.31483363  .00001252  00000+0  10184-3 0  9990
2 67222  45.0056 310.4150 0004477 287.6101  72.4284 15.05567005   317
ELECTRON KICK STAGE R/B 
1 67223U 25305E   25357.29083347  .00018707  00000+0  18366-3 0  9992
2 67223  44.9877 292.9264 0177490 166.6089 193.9601 15.48545747   794
ELECTRON R/B            
1 67224U 25305F   26004.31246618  .00819341  99809-5  27802-3 0  9997
2 67224  44.9966 220.2123 0110431  18.8901 341.6063 16.11003637  2700
TJS-23                  
1 67226U 25306A   26005.05095230  .00000022  00000+0  00000+0 0  9998
2 67226   5.9594 298.3355 0001001 288.5648  71.6427  1.00276463   258
CZ-5 R/B                
1 67227U 25306B   26002.23975566  .00003994  00000+0  95745-3 0  9990
2 67227  16.3556 294.8442 7582788 186.5720 149.5922  1.92311739   265
QPS-SAR-15              
1 67228U 25307A   26005.10858766  .00006605  00000+0  57536-3 0  9991
2 67228  42.0077  42.3669 0008898 358.6404   1.4395 14.97265895  2224
ELECTRON KICK STAGE R/B 
1 67229U 25307B   26005.14587400  .00806071  21375-3  19790-2 0  9996
2 67229  41.9980  33.8212 0194072 343.5822  15.8803 15.70367879  2323
ELECTRON R/B            
1 67230U 25307C   25355.36249005  .00071881  81069-5  20248-3 0  9997
2 67230  41.9820 123.1026 0261408 268.1410  88.9482 15.55087105    19
